{
  "type": "FeatureCollection",
  "features": [
    {
      "type": "Feature",
      "properties": {
        "width_m": 12.0,
        "width_status": "assumed analysis envelope: 6 m either side of mapped centerline; not measured street width",
        "receptor_height_m": 1.5,
        "receptor_height_status": "assumed",
        "public_access_status": "not verified; do not assume full-time pedestrian-only operation"
      },
      "geometry": {
        "type": "Polygon",
        "coordinates": [
          [
            [
              77.6063064793481,
              12.974606999173925
            ],
            [
              77.60624856802893,
              12.974620654680379
            ],
            [
              77.60611835703689,
              12.974650411481056
            ],
            [
              77.60611764047876,
              12.974650580181185
            ],
            [
              77.6059377680834,
              12.974694173482993
            ],
            [
              77.60575181182921,
              12.974739042276168
            ],
            [
              77.60569993031763,
              12.974750527493962
            ],
            [
              77.60569964088516,
              12.97475059236848
            ],
            [
              77.6055719311868,
              12.974779571871908
            ],
            [
              77.60550892154528,
              12.974793651678095
            ],
            [
              77.60550817163414,
              12.974793824649538
            ],
            [
              77.60533077166583,
              12.974836024634113
            ],
            [
              77.60532961639665,
              12.974836312420232
            ],
            [
              77.60512761643169,
              12.974888912401923
            ],
            [
              77.60512719741537,
              12.974889023240854
            ],
            [
              77.60512142363558,
              12.974890574405322
            ],
            [
              77.60477245817336,
              12.97497165724742
            ],
            [
              77.60477112609128,
              12.974971983949079
            ],
            [
              77.6046808233869,
              12.974995303874275
            ],
            [
              77.60465512522404,
              12.975001241706178
            ],
            [
              77.60465391566058,
              12.975001535341272
            ],
            [
              77.60439999986892,
              12.97506616373395
            ],
            [
              77.60439999987749,
              12.975122162332353
            ],
            [
              77.60441388417794,
              12.975174627013052
            ],
            [
              77.604681081253,
              12.975106618160757
            ],
            [
              77.60470687478815,
              12.97510065828973
            ],
            [
              77.60470827390081,
              12.975100316057066
            ],
            [
              77.60479860994457,
              12.975076987514319
            ],
            [
              77.60514784189708,
              12.974995842720652
            ],
            [
              77.60514970259159,
              12.974995376757594
            ],
            [
              77.60515619330643,
              12.974993632983159
            ],
            [
              77.60535740755877,
              12.974941237579749
            ],
            [
              77.60553385403222,
              12.974899264397205
            ],
            [
              77.6055965784735,
              12.974885248314818
            ],
            [
              77.60559675909904,
              12.974885207640607
            ],
            [
              77.60572441449472,
              12.974856240448219
            ],
            [
              77.6057766696992,
              12.974844672499884
            ],
            [
              77.60577770431055,
              12.974844433186231
            ],
            [
              77.60596420434375,
              12.974799433169911
            ],
            [
              77.60596425949693,
              12.974799419832662
            ],
            [
              77.60614380182312,
              12.97475590650949
            ],
            [
              77.60627384299407,
              12.97472618850601
            ],
            [
              77.60627422064901,
              12.974726100829233
            ],
            [
              77.60633221709324,
              12.974712425245164
            ],
            [
              77.60639999987423,
              12.974696712813069
            ],
            [
              77.60639999988437,
              12.974641016492306
            ],
            [
              77.60638728644558,
              12.97458826722293
            ],
            [
              77.60630668657572,
              12.974606950723691
            ],
            [
              77.6063064793481,
              12.974606999173925
            ]
          ]
        ]
      }
    }
  ]
}